{
    "links": {
        "self": "http://www.neowsapp.com/rest/v1/neo/3748459?api_key=iIulBulltgU6a56xZRHN4H3l9WmuAYTsLGpBGhQ2"
    },
    "id": "3748459",
    "neo_reference_id": "3748459",
    "name": "(2016 FE13)",
    "designation": "2016 FE13",
    "nasa_jpl_url": "http://ssd.jpl.nasa.gov/sbdb.cgi?sstr=3748459",
    "absolute_magnitude_h": 25.7,
    "estimated_diameter": {
        "kilometers": {
            "estimated_diameter_min": 0.0192555078,
            "estimated_diameter_max": 0.0430566244
        },
        "meters": {
            "estimated_diameter_min": 19.2555078188,
            "estimated_diameter_max": 43.0566244241
        },
        "miles": {
            "estimated_diameter_min": 0.0119648141,
            "estimated_diameter_max": 0.0267541378
        },
        "feet": {
            "estimated_diameter_min": 63.1742402722,
            "estimated_diameter_max": 141.2618956756
        }
    },
    "is_potentially_hazardous_asteroid": false,
    "close_approach_data": [
        {
            "close_approach_date": "2016-03-26",
            "close_approach_date_full": "2016-Mar-26 07:30",
            "epoch_date_close_approach": 1458977400000,
            "relative_velocity": {
                "kilometers_per_second": "7.1422751763",
                "kilometers_per_hour": "25712.190634643",
                "miles_per_hour": "15976.5553418425"
            },
            "miss_distance": {
                "astronomical": "0.0718060756",
                "lunar": "27.9325634084",
                "kilometers": "10742035.962818972",
                "miles": "6674791.6330949336"
            },
            "orbiting_body": "Earth"
        },
        {
            "close_approach_date": "2178-03-28",
            "close_approach_date_full": "2178-Mar-28 07:58",
            "epoch_date_close_approach": 6571353480000,
            "relative_velocity": {
                "kilometers_per_second": "7.129075061",
                "kilometers_per_hour": "25664.6702196927",
                "miles_per_hour": "15947.0280040085"
            },
            "miss_distance": {
                "astronomical": "0.071902098",
                "lunar": "27.969916122",
                "kilometers": "10756400.70933126",
                "miles": "6683717.472680988"
            },
            "orbiting_body": "Earth"
        }
    ],
    "orbital_data": {
        "orbit_id": "7",
        "orbit_determination_date": "2017-04-06 08:27:09",
        "first_observation_date": "2016-03-29",
        "last_observation_date": "2016-04-13",
        "data_arc_in_days": 15,
        "observations_used": 30,
        "orbit_uncertainty": "8",
        "minimum_orbit_intersection": ".0717881",
        "jupiter_tisserand_invariant": "4.176",
        "epoch_osculation": "2457481.5",
        "eccentricity": ".3584606836138559",
        "semi_major_axis": "1.656475615202021",
        "inclination": "10.94482132052792",
        "ascending_node_longitude": "189.9388994730768",
        "orbital_period": "778.7104404275734",
        "perihelion_distance": "1.062694233787022",
        "perihelion_argument": "344.6867588360072",
        "aphelion_distance": "2.25025699661702",
        "perihelion_time": "2457463.120170195013",
        "mean_anomaly": "8.497046381145486",
        "mean_motion": ".4623027781704476",
        "equinox": "J2000",
        "orbit_class": {
            "orbit_class_type": "AMO",
            "orbit_class_description": "Near-Earth asteroid orbits similar to that of 1221 Amor",
            "orbit_class_range": "1.017 AU < q (perihelion) < 1.3 AU"
        }
    },
    "is_sentry_object": false
}